{
  "norad_id": 68398,
  "name": "STARLINK-37220",
  "history": [
    {
      "epoch": "2026-04-02T18:00:01.999296Z",
      "apogee_km": 273.6187818022772,
      "perigee_km": 270.83759907963577,
      "latitude_deg": -6.581682084999957,
      "longitude_deg": -48.38477269150099,
      "height_km": 277.22305901634763,
      "semi_major_axis_km": 6650.365190440956,
      "eccentricity": 0.0002091,
      "inclination_deg": 97.2815,
      "raan_deg": 233.5577,
      "arg_perigee_deg": 66.0397,
      "mean_anomaly_deg": 120.4043,
      "mean_motion_rev_day": 16.00790582
    }
  ]
}